KUIPER-00044            
1 64505U 25134F   26065.57629698  .00010832  00000+0  14475-2 0  9992
2 64505  51.9031 260.3555 0008066 266.0478  93.9562 14.79917382 39423
KUIPER-00046            
1 64506U 25134G   26066.25591493  .00005614  00000+0  76479-3 0  9995
2 64506  51.8978 253.8132 0000596  95.7105 264.3925 14.79933416 39574
KUIPER-00047            
1 64507U 25134H   26065.73357226  .00005115  00000+0  74436-3 0  9999
2 64507  51.8983 228.8617 0002487 130.0616 230.0563 14.77261483 39879
KUIPER-00048            
1 64508U 25134J   26065.81282395 -.00000112  00000+0  14301-4 0  9992
2 64508  51.8979 228.2987 0000889 106.3393 253.7668 14.79938713 39890
KUIPER-00049            
1 64509U 25134K   26066.18428058  .00006493  00000+0  81200-3 0  9990
2 64509  51.8989 239.9421 0001662 128.8839 231.2273 14.83323088 39765
KUIPER-00050            
1 64510U 25134L   26064.82107298  .00007897  00000+0  69647-3 0  9991
2 64510  51.8886 229.5337 0004284 308.1735  51.8848 14.97214526 39793
KUIPER-00051            
1 64511U 25134M   26066.19674235  .00007476  00000+0  92107-3 0  9994
2 64511  51.9015 236.8681 0000612  89.8473 270.2562 14.83753124 39804
KUIPER-00053            
1 64513U 25134P   26065.46712520  .00004807  00000+0  65917-3 0  9999
2 64513  51.9011 237.3455 0000937 153.4500 206.6511 14.79926554 39739
KUIPER-00054            
1 64514U 25134Q   26065.20263130  .00005244  00000+0  71602-3 0  9994
2 64514  51.8969 233.4869 0000228 129.2223 230.8760 14.79950845 39761
KUIPER-00055            
1 64515U 25134R   26066.33877453  .00025600  00000+0  11682-2 0  9998
2 64515  51.8887 190.8448 0001039  14.2514 345.8495 15.20449974 40461
KUIPER-00056            
1 64516U 25134S   26065.85252986  .00006748  00000+0  83890-3 0  9996
2 64516  51.9018 235.8047 0001210  33.4593 326.6448 14.83513921 39796
KUIPER-00057            
1 64517U 25134T   26066.18384001  .00006902  00000+0  85286-3 0  9991
2 64517  51.8981 241.8218 0004028 264.6573  95.3931 14.83738690 39731
KUIPER-00058            
1 64518U 25134U   26064.72172621  .00005312  00000+0  72484-3 0  9993
2 64518  51.9005 243.0799 0000602 112.8441 247.2585 14.79956006 39595
KUIPER-00059            
1 64519U 25134V   26065.46984235  .00004895  00000+0  67067-3 0  9994
2 64519  51.8998 234.8239 0001132 147.6006 212.5026 14.79927510 39778
KUIPER-00060            
1 64520U 25134W   26066.18943442  .00007017  00000+0  86983-3 0  9998
2 64520  51.9025 231.7807 0001654  69.9539 290.1602 14.83581067 39865
KUIPER-00061            
1 64521U 25134X   26066.20455991  .00005697  00000+0  77600-3 0  9997
2 64521  51.8997 239.0787 0001171 104.4468 255.6625 14.79913615 39764
