[{"OBJECT_NAME":"KUIPER-00044","OBJECT_ID":"2025-134F","EPOCH":"2026-03-06T13:49:52.059072","MEAN_MOTION":14.79917382,"ECCENTRICITY":0.00080666,"INCLINATION":51.9031,"RA_OF_ASC_NODE":260.3555,"ARG_OF_PERICENTER":266.0478,"MEAN_ANOMALY":93.9562,"EPHEMERIS_TYPE":0,"CLASSIFICATION_TYPE":"U","NORAD_CAT_ID":64505,"ELEMENT_SET_NO":999,"REV_AT_EPOCH":3942,"BSTAR":0.0014475389,"MEAN_MOTION_DOT":0.00010832,"MEAN_MOTION_DDOT":0},{"OBJECT_NAME":"KUIPER-00046","OBJECT_ID":"2025-134G","EPOCH":"2026-03-07T06:08:31.049952","MEAN_MOTION":14.79933416,"ECCENTRICITY":5.964e-5,"INCLINATION":51.8978,"RA_OF_ASC_NODE":253.8132,"ARG_OF_PERICENTER":95.7105,"MEAN_ANOMALY":264.3925,"EPHEMERIS_TYPE":0,"CLASSIFICATION_TYPE":"U","NORAD_CAT_ID":64506,"ELEMENT_SET_NO":999,"REV_AT_EPOCH":3957,"BSTAR":0.00076479162,"MEAN_MOTION_DOT":5.614e-5,"MEAN_MOTION_DDOT":0},{"OBJECT_NAME":"KUIPER-00047","OBJECT_ID":"2025-134H","EPOCH":"2026-03-06T17:36:20.643264","MEAN_MOTION":14.77261483,"ECCENTRICITY":0.00024874,"INCLINATION":51.8983,"RA_OF_ASC_NODE":228.8617,"ARG_OF_PERICENTER":130.0616,"MEAN_ANOMALY":230.0563,"EPHEMERIS_TYPE":0,"CLASSIFICATION_TYPE":"U","NORAD_CAT_ID":64507,"ELEMENT_SET_NO":999,"REV_AT_EPOCH":3987,"BSTAR":0.00074435575,"MEAN_MOTION_DOT":5.115e-5,"MEAN_MOTION_DDOT":0},{"OBJECT_NAME":"KUIPER-00048","OBJECT_ID":"2025-134J","EPOCH":"2026-03-06T19:30:27.989280","MEAN_MOTION":14.79938713,"ECCENTRICITY":8.892e-5,"INCLINATION":51.8979,"RA_OF_ASC_NODE":228.2987,"ARG_OF_PERICENTER":106.3393,"MEAN_ANOMALY":253.7668,"EPHEMERIS_TYPE":0,"CLASSIFICATION_TYPE":"U","NORAD_CAT_ID":64508,"ELEMENT_SET_NO":999,"REV_AT_EPOCH":3989,"BSTAR":1.430053e-5,"MEAN_MOTION_DOT":-1.12e-6,"MEAN_MOTION_DDOT":0},{"OBJECT_NAME":"KUIPER-00049","OBJECT_ID":"2025-134K","EPOCH":"2026-03-07T04:25:21.842112","MEAN_MOTION":14.83323088,"ECCENTRICITY":0.00016624,"INCLINATION":51.8989,"RA_OF_ASC_NODE":239.9421,"ARG_OF_PERICENTER":128.8839,"MEAN_ANOMALY":231.2273,"EPHEMERIS_TYPE":0,"CLASSIFICATION_TYPE":"U","NORAD_CAT_ID":64509,"ELEMENT_SET_NO":999,"REV_AT_EPOCH":3976,"BSTAR":0.00081199668,"MEAN_MOTION_DOT":6.493e-5,"MEAN_MOTION_DDOT":0},{"OBJECT_NAME":"KUIPER-00050","OBJECT_ID":"2025-134L","EPOCH":"2026-03-05T19:42:20.705472","MEAN_MOTION":14.97214526,"ECCENTRICITY":0.00042849,"INCLINATION":51.8886,"RA_OF_ASC_NODE":229.5337,"ARG_OF_PERICENTER":308.1735,"MEAN_ANOMALY":51.8848,"EPHEMERIS_TYPE":0,"CLASSIFICATION_TYPE":"U","NORAD_CAT_ID":64510,"ELEMENT_SET_NO":999,"REV_AT_EPOCH":3979,"BSTAR":0.00069646737,"MEAN_MOTION_DOT":7.897e-5,"MEAN_MOTION_DDOT":0},{"OBJECT_NAME":"KUIPER-00051","OBJECT_ID":"2025-134M","EPOCH":"2026-03-07T04:43:18.539040","MEAN_MOTION":14.83753124,"ECCENTRICITY":6.123e-5,"INCLINATION":51.9015,"RA_OF_ASC_NODE":236.8681,"ARG_OF_PERICENTER":89.8473,"MEAN_ANOMALY":270.2562,"EPHEMERIS_TYPE":0,"CLASSIFICATION_TYPE":"U","NORAD_CAT_ID":64511,"ELEMENT_SET_NO":999,"REV_AT_EPOCH":3980,"BSTAR":0.00092106526,"MEAN_MOTION_DOT":7.476e-5,"MEAN_MOTION_DDOT":0},{"OBJECT_NAME":"KUIPER-00053","OBJECT_ID":"2025-134P","EPOCH":"2026-03-06T11:12:39.617280","MEAN_MOTION":14.79926554,"ECCENTRICITY":9.371e-5,"INCLINATION":51.9011,"RA_OF_ASC_NODE":237.3455,"ARG_OF_PERICENTER":153.45,"MEAN_ANOMALY":206.6511,"EPHEMERIS_TYPE":0,"CLASSIFICATION_TYPE":"U","NORAD_CAT_ID":64513,"ELEMENT_SET_NO":999,"REV_AT_EPOCH":3973,"BSTAR":0.00065916916,"MEAN_MOTION_DOT":4.807e-5,"MEAN_MOTION_DDOT":0},{"OBJECT_NAME":"KUIPER-00054","OBJECT_ID":"2025-134Q","EPOCH":"2026-03-06T04:51:47.344320","MEAN_MOTION":14.79950845,"ECCENTRICITY":2.284e-5,"INCLINATION":51.8969,"RA_OF_ASC_NODE":233.4869,"ARG_OF_PERICENTER":129.2223,"MEAN_ANOMALY":230.876,"EPHEMERIS_TYPE":0,"CLASSIFICATION_TYPE":"U","NORAD_CAT_ID":64514,"ELEMENT_SET_NO":999,"REV_AT_EPOCH":3976,"BSTAR":0.00071602157,"MEAN_MOTION_DOT":5.244e-5,"MEAN_MOTION_DDOT":0},{"OBJECT_NAME":"KUIPER-00055","OBJECT_ID":"2025-134R","EPOCH":"2026-03-07T08:07:50.119392","MEAN_MOTION":15.20449974,"ECCENTRICITY":0.00010398,"INCLINATION":51.8887,"RA_OF_ASC_NODE":190.8448,"ARG_OF_PERICENTER":14.2514,"MEAN_ANOMALY":345.8495,"EPHEMERIS_TYPE":0,"CLASSIFICATION_TYPE":"U","NORAD_CAT_ID":64515,"ELEMENT_SET_NO":999,"REV_AT_EPOCH":4046,"BSTAR":0.0011682173,"MEAN_MOTION_DOT":0.000256,"MEAN_MOTION_DDOT":0},{"OBJECT_NAME":"KUIPER-00056","OBJECT_ID":"2025-134S","EPOCH":"2026-03-06T20:27:38.579904","MEAN_MOTION":14.83513921,"ECCENTRICITY":0.000121,"INCLINATION":51.9018,"RA_OF_ASC_NODE":235.8047,"ARG_OF_PERICENTER":33.4593,"MEAN_ANOMALY":326.6448,"EPHEMERIS_TYPE":0,"CLASSIFICATION_TYPE":"U","NORAD_CAT_ID":64516,"ELEMENT_SET_NO":999,"REV_AT_EPOCH":3979,"BSTAR":0.00083890115,"MEAN_MOTION_DOT":6.748e-5,"MEAN_MOTION_DDOT":0},{"OBJECT_NAME":"KUIPER-00057","OBJECT_ID":"2025-134T","EPOCH":"2026-03-07T04:24:43.776864","MEAN_MOTION":14.8373869,"ECCENTRICITY":0.00040281,"INCLINATION":51.8981,"RA_OF_ASC_NODE":241.8218,"ARG_OF_PERICENTER":264.6573,"MEAN_ANOMALY":95.3931,"EPHEMERIS_TYPE":0,"CLASSIFICATION_TYPE":"U","NORAD_CAT_ID":64517,"ELEMENT_SET_NO":999,"REV_AT_EPOCH":3973,"BSTAR":0.00085286196,"MEAN_MOTION_DOT":6.902e-5,"MEAN_MOTION_DDOT":0},{"OBJECT_NAME":"KUIPER-00058","OBJECT_ID":"2025-134U","EPOCH":"2026-03-05T17:19:17.144544","MEAN_MOTION":14.79956006,"ECCENTRICITY":6.02e-5,"INCLINATION":51.9005,"RA_OF_ASC_NODE":243.0799,"ARG_OF_PERICENTER":112.8441,"MEAN_ANOMALY":247.2585,"EPHEMERIS_TYPE":0,"CLASSIFICATION_TYPE":"U","NORAD_CAT_ID":64518,"ELEMENT_SET_NO":999,"REV_AT_EPOCH":3959,"BSTAR":0.00072484345,"MEAN_MOTION_DOT":5.312e-5,"MEAN_MOTION_DDOT":0},{"OBJECT_NAME":"KUIPER-00059","OBJECT_ID":"2025-134V","EPOCH":"2026-03-06T11:16:34.379040","MEAN_MOTION":14.7992751,"ECCENTRICITY":0.00011322,"INCLINATION":51.8998,"RA_OF_ASC_NODE":234.8239,"ARG_OF_PERICENTER":147.6006,"MEAN_ANOMALY":212.5026,"EPHEMERIS_TYPE":0,"CLASSIFICATION_TYPE":"U","NORAD_CAT_ID":64519,"ELEMENT_SET_NO":999,"REV_AT_EPOCH":3977,"BSTAR":0.00067067311,"MEAN_MOTION_DOT":4.895e-5,"MEAN_MOTION_DDOT":0},{"OBJECT_NAME":"KUIPER-00060","OBJECT_ID":"2025-134W","EPOCH":"2026-03-07T04:32:47.133888","MEAN_MOTION":14.83581067,"ECCENTRICITY":0.0001654,"INCLINATION":51.9025,"RA_OF_ASC_NODE":231.7807,"ARG_OF_PERICENTER":69.9539,"MEAN_ANOMALY":290.1602,"EPHEMERIS_TYPE":0,"CLASSIFICATION_TYPE":"U","NORAD_CAT_ID":64520,"ELEMENT_SET_NO":999,"REV_AT_EPOCH":3986,"BSTAR":0.00086983298,"MEAN_MOTION_DOT":7.017e-5,"MEAN_MOTION_DDOT":0},{"OBJECT_NAME":"KUIPER-00061","OBJECT_ID":"2025-134X","EPOCH":"2026-03-07T04:54:33.976224","MEAN_MOTION":14.79913615,"ECCENTRICITY":0.00011715,"INCLINATION":51.8997,"RA_OF_ASC_NODE":239.0787,"ARG_OF_PERICENTER":104.4468,"MEAN_ANOMALY":255.6625,"EPHEMERIS_TYPE":0,"CLASSIFICATION_TYPE":"U","NORAD_CAT_ID":64521,"ELEMENT_SET_NO":999,"REV_AT_EPOCH":3976,"BSTAR":0.00077600313,"MEAN_MOTION_DOT":5.697e-5,"MEAN_MOTION_DDOT":0}]
